OBJECT_NAME,OBJECT_ID,EPOCH,MEAN_MOTION,ECCENTRICITY,INCLINATION,RA_OF_ASC_NODE,ARG_OF_PERICENTER,MEAN_ANOMALY,EPHEMERIS_TYPE,CLASSIFICATION_TYPE,NORAD_CAT_ID,ELEMENT_SET_NO,REV_AT_EPOCH,BSTAR,MEAN_MOTION_DOT,MEAN_MOTION_DDOT
STARLINK-33573,2025-015W,2025-01-25T22:00:01.999584,15.97430160,.0000479,53.1623,65.9262,71.6494,105.7910,0,U,62778,999,191,-.17328E-2,-.790335E-2,.21155E-3
STARLINK-33568,2025-015X,2025-01-25T22:00:01.999584,15.97495896,.0000586,53.1623,65.9246,73.9122,104.3034,0,U,62779,999,175,-.17199E-2,-.787349E-2,.21027E-3
STARLINK-33593,2025-015Y,2025-01-25T22:00:01.999584,15.97640173,.0000646,53.1622,65.9221,66.5845,112.7845,0,U,62780,999,191,-.17149E-2,-.791341E-2,.2125E-3
STARLINK-33588,2025-015Z,2025-01-25T22:00:01.999584,15.97746770,.0000769,53.1622,65.9200,52.7270,127.5871,0,U,62781,999,191,-.17178E-2,-.797343E-2,.21564E-3
STARLINK-33585,2025-015AA,2025-01-25T22:00:01.999584,15.97863301,.0000306,53.1623,65.9182,69.7462,111.5650,0,U,62782,999,164,-.17145E-2,-.800937E-2,.21765E-3
STARLINK-33582,2025-015AB,2025-01-25T22:00:01.999584,15.98120865,.0000453,53.1621,65.9136,69.1034,114.3638,0,U,62783,999,185,-.16897E-2,-.800789E-2,.21817E-3
STARLINK-33581,2025-015AC,2025-01-25T22:00:01.999584,15.97997432,.0000554,53.1621,65.9158,77.1300,105.2877,0,U,62784,999,191,-.16991E-2,-.799725E-2,.21737E-3
TJS-14,2025-017A,2025-01-23T19:46:54.026688,2.28112302,.7305768,28.4771,353.3842,179.8015,132.0558,0,U,62804,999,0,0,.227E-5,-.39377E-6
CZ-3B R/B,2025-017B,2025-01-25T03:14:15.384192,2.38077957,.7240991,28.4582,352.9146,179.8705,180.8143,0,U,62805,999,3,.11732E-2,.63749E-3,-.49755E-6