STARLINK-33573          
1 62778U 25015W   25025.91668981 -.00790335  21155-3 -17328-2 0  9994
2 62778  53.1623  65.9262 0000479  71.6494 105.7910 15.97430160  1913
STARLINK-33568          
1 62779U 25015X   25025.91668981 -.00787349  21027-3 -17199-2 0  9990
2 62779  53.1623  65.9246 0000586  73.9122 104.3034 15.97495896  1759
STARLINK-33593          
1 62780U 25015Y   25025.91668981 -.00791341  21250-3 -17149-2 0  9992
2 62780  53.1622  65.9221 0000646  66.5845 112.7845 15.97640173  1911
STARLINK-33588          
1 62781U 25015Z   25025.91668981 -.00797343  21564-3 -17178-2 0  9991
2 62781  53.1622  65.9200 0000769  52.7270 127.5871 15.97746770  1917
STARLINK-33585          
1 62782U 25015AA  25025.91668981 -.00800937  21765-3 -17145-2 0  9993
2 62782  53.1623  65.9182 0000306  69.7462 111.5650 15.97863301  1644
STARLINK-33582          
1 62783U 25015AB  25025.91668981 -.00800789  21817-3 -16897-2 0  9990
2 62783  53.1621  65.9136 0000453  69.1034 114.3638 15.98120865  1856
STARLINK-33581          
1 62784U 25015AC  25025.91668981 -.00799725  21737-3 -16991-2 0  9994
2 62784  53.1621  65.9158 0000554  77.1300 105.2877 15.97997432  1910
TJS-14                  
1 62804U 25017A   25023.82423642  .00000227 -39377-6  00000+0 0  9994
2 62804  28.4771 353.3842 7305768 179.8015 132.0558  2.28112302    01
CZ-3B R/B               
1 62805U 25017B   25025.13490028  .00063749 -49755-6  11732-2 0  9999
2 62805  28.4582 352.9146 7240991 179.8705 180.8143  2.38077957    37
